     2.10           G: GLONASS NAV DATA                     RINEX VERSION / TYPE
teqc  2015Jun23                         20220411 07:35:50UTCPGM / RUN BY / DATE
Linux 2.4.21-27.ELsmp|Opteron|gcc -static|Linux x86_64|=+   COMMENT
  2022     3    18    9.313225746155D-10                    CORR TO SYSTEM TIME
                                                            END OF HEADER
12 22  3 19  9 45  0.0 1.750048249960D-05 0.000000000000D+00 3.420000000000D+04
   -1.169406982422D+04 6.036691665649D-01 9.313225746155D-10 0.000000000000D+00
    1.386302246094D+04-2.384641647339D+00-9.313225746155D-10-1.000000000000D+00
   -1.792797705078D+04-2.233135223389D+00 1.862645149231D-09 0.000000000000D+00
13 22  3 19  9 45  0.0-1.965835690498D-05-0.000000000000D+00 3.420000000000D+04
   -6.625264648438D+03 2.423658370972D-01 3.725290298462D-09 0.000000000000D+00
    2.437901025391D+04-4.462299346924D-01 0.000000000000D+00-2.000000000000D+00
   -3.565871582031D+03-3.521285057068D+00 0.000000000000D+00 0.000000000000D+00
17 22  3 19  9 45  0.0 5.107549950480D-04 2.728484105319D-12 3.420000000000D+04
    1.478823828125D+04-7.293081283569D-01 3.725290298462D-09 0.000000000000D+00
    1.891527636719D+04-9.592933654785D-01 3.725290298462D-09 4.000000000000D+00
    8.667058593750D+03 3.338286399841D+00-9.313225746155D-10 0.000000000000D+00
 1 22  3 19 10 15  0.0 7.286667823792D-06 0.000000000000D+00 3.600000000000D+04
   -2.334092773438D+04 6.271333694458D-01-0.000000000000D+00 0.000000000000D+00
    9.186778808594D+03-1.529674530029D-01-3.725290298462D-09 1.000000000000D+00
    4.601943847656D+03 3.491642951965D+00-0.000000000000D+00 0.000000000000D+00
 2 22  3 19 10 15  0.0 5.129529163241D-04 9.094947017729D-13 3.600000000000D+04
   -1.509073730469D+04-1.756966590881D+00 9.313225746155D-10 0.000000000000D+00
    1.452951318359D+04 9.650421142578D-01-1.862645149231D-09-4.000000000000D+00
   -1.455260107422D+04 2.770681381226D+00 1.862645149231D-09 0.000000000000D+00
12 22  3 19 10 15  0.0 1.750048249960D-05 0.000000000000D+00 3.600000000000D+04
   -1.087092285156D+04 2.840051651001D-01 0.000000000000D+00 0.000000000000D+00
    9.075662109375D+03-2.893719673157D+00-1.862645149231D-09-1.000000000000D+00
   -2.120196923828D+04-1.380912780762D+00 2.793967723846D-09 0.000000000000D+00
13 22  3 19 10 15  0.0-1.965928822756D-05-0.000000000000D+00 3.600000000000D+04
   -6.167716308594D+03 2.255010604858D-01 2.793967723846D-09 0.000000000000D+00
    2.278940234375D+04-1.310227394104D+00-0.000000000000D+00-2.000000000000D+00
   -9.684596679688D+03-3.233217239380D+00 9.313225746155D-10 0.000000000000D+00
14 22  3 19 10 15  0.0 7.554516196251D-05 0.000000000000D+00 3.600000000000D+04
    2.576048339844D+03 3.456592559814D-02 4.656612873077D-09 0.000000000000D+00
    2.374976025391D+04 1.228047370911D+00 9.313225746155D-10-7.000000000000D+00
    8.932118652344D+03-3.278133392334D+00-9.313225746155D-10 0.000000000000D+00
17 22  3 19 10 15  0.0 5.107605829835D-04 2.728484105319D-12 3.600000000000D+04
    1.278900292969D+04-1.494482040405D+00 3.725290298462D-09 0.000000000000D+00
    1.686851220703D+04-1.269824981689D+00 1.862645149231D-09 4.000000000000D+00
    1.426411914062D+04 2.840373039246D+00-9.313225746155D-10 0.000000000000D+00
24 22  3 19 10 15  0.0 8.508283644915D-05 1.818989403546D-12 3.603000000000D+04
   -3.489120117188D+03-2.529613494873D+00 9.313225746155D-10 0.000000000000D+00
    1.068747119141D+04-1.849996566772D+00-0.000000000000D+00 2.000000000000D+00
    2.291410546875D+04 4.774589538574D-01-2.793967723846D-09 0.000000000000D+00
 3 22  3 19 10 15  0.0 5.336385220289D-05 0.000000000000D+00 3.672000000000D+04
    2.052447753906D+03-2.835436820984D+00 1.862645149231D-09 0.000000000000D+00
    1.102704003906D+04 1.357897758484D+00 0.000000000000D+00 5.000000000000D+00
   -2.286458349609D+04 3.944597244263D-01 2.793967723846D-09 0.000000000000D+00
15 22  3 19 10 15  0.0 9.743962436914D-05-0.000000000000D+00 3.768000000000D+04
    9.381397460938D+03-1.716728210449D-01 2.793967723846D-09 0.000000000000D+00
    1.059263281250D+04 2.899295806885D+00 1.862645149231D-09 0.000000000000D+00
    2.123750097656D+04-1.370841026306D+00-1.862645149231D-09 0.000000000000D+00
 1 22  3 19 10 45  0.0 7.286667823792D-06 0.000000000000D+00 3.780000000000D+04
   -2.159593847656D+04 1.277557373047D+00-1.862645149231D-09 0.000000000000D+00
    8.434626953125D+03-7.070550918579D-01-3.725290298462D-09 1.000000000000D+00
    1.062760302734D+04 3.160044670105D+00-9.313225746155D-10 0.000000000000D+00
 2 22  3 19 10 45  0.0 5.129547789693D-04 9.094947017729D-13 3.780000000000D+04
   -1.754738916016D+04-9.660043716431D-01-0.000000000000D+00 0.000000000000D+00
    1.616326464844D+04 8.065290451050D-01-2.793967723846D-09-4.000000000000D+00
   -9.067405761719D+03 3.284289360046D+00 9.313225746155D-10 0.000000000000D+00
 3 22  3 19 10 45  0.0 5.336385220289D-05 0.000000000000D+00 3.780000000000D+04
   -2.716992675781D+03-2.424799919128D+00 1.862645149231D-09 0.000000000000D+00
    1.375138525391D+04 1.635848045349D+00-9.313225746155D-10 5.000000000000D+00
   -2.127617773438D+04 1.358730316162D+00 2.793967723846D-09 0.000000000000D+00
13 22  3 19 10 45  0.0-1.966021955013D-05-0.000000000000D+00 3.780000000000D+04
   -5.950418945312D+03-1.820850372314D-02 1.862645149231D-09 0.000000000000D+00
    1.973111181641D+04-2.059929847717D+00-9.313225746155D-10-2.000000000000D+00
   -1.505538037109D+04-2.695674896240D+00 1.862645149231D-09 0.000000000000D+00
14 22  3 19 10 45  0.0 7.554516196251D-05 0.000000000000D+00 3.780000000000D+04
    2.782856933594D+03 1.563539505005D-01 3.725290298462D-09 0.000000000000D+00
    2.519940966797D+04 3.691272735596D-01-0.000000000000D+00-7.000000000000D+00
    2.762232421875D+03-3.532758712769D+00-0.000000000000D+00 0.000000000000D+00
15 22  3 19 10 45  0.0 9.744148701429D-05-0.000000000000D+00 3.780000000000D+04
    9.444884765625D+03 2.221374511719D-01 3.725290298462D-09 0.000000000000D+00
    1.544743359375D+04 2.450376510620D+00 9.313225746155D-10 0.000000000000D+00
    1.798196630859D+04-2.222998619080D+00-1.862645149231D-09 0.000000000000D+00
17 22  3 19 10 45  0.0 5.107671022415D-04 2.728484105319D-12 3.780000000000D+04
    9.434791503906D+03-2.215273857117D+00 3.725290298462D-09 0.000000000000D+00
    1.450861035156D+04-1.307434082031D+00 9.313225746155D-10 4.000000000000D+00
    1.876054492188D+04 2.123267173767D+00-1.862645149231D-09 0.000000000000D+00
 1 22  3 19 11 15  0.0 7.286667823792D-06 0.000000000000D+00 3.960000000000D+04
   -1.888472216797D+04 1.691007614136D+00-1.862645149231D-09 0.000000000000D+00
    6.582494628906D+03-1.358580589294D+00-2.793967723846D-09 1.000000000000D+00
    1.583114062500D+04 2.584141731262D+00-1.862645149231D-09 0.000000000000D+00
 2 22  3 19 11 15  0.0 5.129575729370D-04 9.094947017729D-13 3.960000000000D+04
   -1.857939941406D+04-1.932067871094D-01-9.313225746155D-10 0.000000000000D+00
    1.727963427734D+04 3.938951492310D-01-3.725290298462D-09-4.000000000000D+00
   -2.882064941406D+03 3.543720245361D+00 0.000000000000D+00 0.000000000000D+00
 3 22  3 19 11 15  0.0 5.336478352547D-05 0.000000000000D+00 3.960000000000D+04
   -6.562186035156D+03-1.823998451233D+00 9.313225746155D-10 0.000000000000D+00
    1.677593652344D+04 1.681498527527D+00-1.862645149231D-09 5.000000000000D+00
   -1.803730322266D+04 2.216380119324D+00 1.862645149231D-09 0.000000000000D+00
13 22  3 19 11 15  0.0-1.966021955013D-05-0.000000000000D+00 3.960000000000D+04
   -6.335330078125D+03-4.309453964233D-01 0.000000000000D+00 0.000000000000D+00
    1.550133593750D+04-2.597931861877D+00-1.862645149231D-09-2.000000000000D+00
   -1.926404394531D+04-1.950365066528D+00 1.862645149231D-09 0.000000000000D+00
14 22  3 19 11 15  0.0 7.554609328508D-05 0.000000000000D+00 3.960000000000D+04
    2.994399902344D+03 3.878307342529D-02 3.725290298462D-09 0.000000000000D+00
    2.506464941406D+04-5.129699707031D-01-9.313225746155D-10-7.000000000000D+00
   -3.621380371094D+03-3.514043807983D+00 0.000000000000D+00 0.000000000000D+00
15 22  3 19 11 15  0.0 9.744148701429D-05-0.000000000000D+00 3.960000000000D+04
    1.008293115234D+04 4.533529281616D-01 4.656612873077D-09 0.000000000000D+00
    1.927466992188D+04 1.770432472229D+00 0.000000000000D+00 0.000000000000D+00
    1.333783447266D+04-2.903717041016D+00-9.313225746155D-10 0.000000000000D+00
17 22  3 19 11 15  0.0 5.107726901770D-04 2.728484105319D-12 3.960000000000D+04
    4.908516601562D+03-2.779293060303D+00 2.793967723846D-09 0.000000000000D+00
    1.231174072266D+04-1.096483230591D+00 0.000000000000D+00 4.000000000000D+00
    2.180922216797D+04 1.242156982422D+00-1.862645149231D-09 0.000000000000D+00
15 22  3 19 11 45  0.0 9.744055569172D-05-0.000000000000D+00 4.140000000000D+04
    1.094084423828D+04 4.590997695923D-01 4.656612873077D-09 0.000000000000D+00
    2.173730517578D+04 9.516859054565D-01-0.000000000000D+00 0.000000000000D+00
    7.663390625000D+03-3.360339164734D+00-0.000000000000D+00 0.000000000000D+00
 2 22  3 19 11 45  0.0 5.129612982273D-04 9.094947017729D-13 4.140000000000D+04
   -1.831914160156D+04 4.534111022949D-01-1.862645149231D-09 0.000000000000D+00
    1.745446630859D+04-2.288246154785D-01-3.725290298462D-09-4.000000000000D+00
    3.525554199219D+03 3.529804229736D+00-9.313225746155D-10 0.000000000000D+00
 3 22  3 19 11 45  0.0 5.336571484804D-05 0.000000000000D+00 4.140000000000D+04
   -9.231203613281D+03-1.136544227600D+00-0.000000000000D+00 0.000000000000D+00
    1.964118261719D+04 1.456018447876D+00-2.793967723846D-09 5.000000000000D+00
   -1.340120068359D+04 2.901178359985D+00 9.313225746155D-10 0.000000000000D+00
13 22  3 19 11 45  0.0-1.966115087271D-05-0.000000000000D+00 4.140000000000D+04
   -7.549888183594D+03-9.232339859009D-01-9.313225746155D-10 0.000000000000D+00
    1.054549755859D+04-2.859146118164D+00-1.862645149231D-09-2.000000000000D+00
   -2.198634082031D+04-1.054851531982D+00 2.793967723846D-09 0.000000000000D+00
